HULIANWANG DIGUI-119    
1 67059U 25295A   26003.44420681  .00000642  00000+0  34258-3 0  9996
2 67059  50.0041 280.7153 0013901 323.2654  36.7305 14.24627252  3219
HULIANWANG DIGUI-120    
1 67060U 25295B   26003.43931663  .00000636  00000+0  33989-3 0  9997
2 67060  50.0049 280.6901 0013275 323.8632  36.1383 14.24629024  3214
HULIANWANG DIGUI-121    
1 67061U 25295C   26003.44105487  .00000640  00000+0  34162-3 0  9995
2 67061  50.0012 280.6845 0013180 323.0945  36.9061 14.24645844  3215
HULIANWANG DIGUI-122    
1 67062U 25295D   26003.43841110  .00000635  00000+0  33944-3 0  9996
2 67062  50.0044 280.6832 0013022 329.0568  30.9577 14.24621057  3215
HULIANWANG DIGUI-123    
1 67063U 25295E   26003.43738367  .00000631  00000+0  33773-3 0  9992
2 67063  50.0050 280.6809 0011960 328.5720  31.4477 14.24626714  3210
HULIANWANG DIGUI-124    
1 67064U 25295F   26003.43641052  .00000624  00000+0  33465-3 0  9997
2 67064  50.0009 280.6570 0011831 322.2461  37.7621 14.24630646  3219
HULIANWANG DIGUI-125    
1 67065U 25295G   26003.43532414  .00000621  00000+0  33349-3 0  9997
2 67065  50.0001 280.6479 0011961 330.1618  29.8612 14.24638569  3210
HULIANWANG DIGUI-126    
1 67066U 25295H   26003.43429357  .00000612  00000+0  32959-3 0  9995
2 67066  50.0004 280.6425 0011248 323.7221  36.2929 14.24658886  3218
HULIANWANG DIGUI-127    
1 67067U 25295J   26003.22283860 -.00001339  00000+0 -50362-3 0  9997
2 67067  50.0043 281.5339 0010723 329.4670  30.5618 14.24672222  3182
CZ-12 R/B               
1 67068U 25295K   26003.19185986  .00000132  00000+0  90708-4 0  9991
2 67068  49.9935 279.3062 0056866 212.7951 146.9434 14.41134857  3209
XIWANG-5 02             
1 67069U 25296A   26003.39222730  .00020817  00000+0  11631-2 0  9992
2 67069  41.3532 338.4374 0002617 321.2409  38.8223 15.13053930  3242
DEAR-5                  
1 67070U 25296B   26003.36296117  .00011103  00000+0  55700-3 0  9995
2 67070  41.3576 338.2245 0019683 172.5525 187.5592 15.17051989  3230
