CCSDS_OMM_VERS = 2.0
CREATION_DATE  = 
ORIGINATOR     = 

OBJECT_NAME    = HULIANWANG DIGUI-119
OBJECT_ID      = 2025-295A
CENTER_NAME    = EARTH
REF_FRAME      = TEME
TIME_SYSTEM    = UTC
MEAN_ELEMENT_THEORY = SGP/SGP4

EPOCH          = 2026-01-03T10:39:39.468384
MEAN_MOTION    = 14.24627252
ECCENTRICITY   = .0013901
INCLINATION    = 50.0041
RA_OF_ASC_NODE = 280.7153
ARG_OF_PERICENTER = 323.2654
MEAN_ANOMALY   = 36.7305

EPHEMERIS_TYPE = 0
CLASSIFICATION_TYPE = U
NORAD_CAT_ID   = 67059
ELEMENT_SET_NO = 999
REV_AT_EPOCH   = 321
BSTAR          = .34258E-3
MEAN_MOTION_DOT = .642E-5
MEAN_MOTION_DDOT = 0

CCSDS_OMM_VERS = 2.0
CREATION_DATE  = 
ORIGINATOR     = 

OBJECT_NAME    = HULIANWANG DIGUI-120
OBJECT_ID      = 2025-295B
CENTER_NAME    = EARTH
REF_FRAME      = TEME
TIME_SYSTEM    = UTC
MEAN_ELEMENT_THEORY = SGP/SGP4

EPOCH          = 2026-01-03T10:32:36.956832
MEAN_MOTION    = 14.24629024
ECCENTRICITY   = .0013275
INCLINATION    = 50.0049
RA_OF_ASC_NODE = 280.6901
ARG_OF_PERICENTER = 323.8632
MEAN_ANOMALY   = 36.1383

EPHEMERIS_TYPE = 0
CLASSIFICATION_TYPE = U
NORAD_CAT_ID   = 67060
ELEMENT_SET_NO = 999
REV_AT_EPOCH   = 321
BSTAR          = .33989E-3
MEAN_MOTION_DOT = .636E-5
MEAN_MOTION_DDOT = 0

CCSDS_OMM_VERS = 2.0
CREATION_DATE  = 
ORIGINATOR     = 

OBJECT_NAME    = HULIANWANG DIGUI-121
OBJECT_ID      = 2025-295C
CENTER_NAME    = EARTH
REF_FRAME      = TEME
TIME_SYSTEM    = UTC
MEAN_ELEMENT_THEORY = SGP/SGP4

EPOCH          = 2026-01-03T10:35:07.140768
MEAN_MOTION    = 14.24645844
ECCENTRICITY   = .001318
INCLINATION    = 50.0012
RA_OF_ASC_NODE = 280.6845
ARG_OF_PERICENTER = 323.0945
MEAN_ANOMALY   = 36.9061

EPHEMERIS_TYPE = 0
CLASSIFICATION_TYPE = U
NORAD_CAT_ID   = 67061
ELEMENT_SET_NO = 999
REV_AT_EPOCH   = 321
BSTAR          = .34162E-3
MEAN_MOTION_DOT = .64E-5
MEAN_MOTION_DDOT = 0

CCSDS_OMM_VERS = 2.0
CREATION_DATE  = 
ORIGINATOR     = 

OBJECT_NAME    = HULIANWANG DIGUI-122
OBJECT_ID      = 2025-295D
CENTER_NAME    = EARTH
REF_FRAME      = TEME
TIME_SYSTEM    = UTC
MEAN_ELEMENT_THEORY = SGP/SGP4

EPOCH          = 2026-01-03T10:31:18.719040
MEAN_MOTION    = 14.24621057
ECCENTRICITY   = .0013022
INCLINATION    = 50.0044
RA_OF_ASC_NODE = 280.6832
ARG_OF_PERICENTER = 329.0568
MEAN_ANOMALY   = 30.9577

EPHEMERIS_TYPE = 0
CLASSIFICATION_TYPE = U
NORAD_CAT_ID   = 67062
ELEMENT_SET_NO = 999
REV_AT_EPOCH   = 321
BSTAR          = .33944E-3
MEAN_MOTION_DOT = .635E-5
MEAN_MOTION_DDOT = 0

CCSDS_OMM_VERS = 2.0
CREATION_DATE  = 
ORIGINATOR     = 

OBJECT_NAME    = HULIANWANG DIGUI-123
OBJECT_ID      = 2025-295E
CENTER_NAME    = EARTH
REF_FRAME      = TEME
TIME_SYSTEM    = UTC
MEAN_ELEMENT_THEORY = SGP/SGP4

EPOCH          = 2026-01-03T10:29:49.949088
MEAN_MOTION    = 14.24626714
ECCENTRICITY   = .001196
INCLINATION    = 50.0050
RA_OF_ASC_NODE = 280.6809
ARG_OF_PERICENTER = 328.5720
MEAN_ANOMALY   = 31.4477

EPHEMERIS_TYPE = 0
CLASSIFICATION_TYPE = U
NORAD_CAT_ID   = 67063
ELEMENT_SET_NO = 999
REV_AT_EPOCH   = 321
BSTAR          = .33773E-3
MEAN_MOTION_DOT = .631E-5
MEAN_MOTION_DDOT = 0

CCSDS_OMM_VERS = 2.0
CREATION_DATE  = 
ORIGINATOR     = 

OBJECT_NAME    = HULIANWANG DIGUI-124
OBJECT_ID      = 2025-295F
CENTER_NAME    = EARTH
REF_FRAME      = TEME
TIME_SYSTEM    = UTC
MEAN_ELEMENT_THEORY = SGP/SGP4

EPOCH          = 2026-01-03T10:28:25.868928
MEAN_MOTION    = 14.24630646
ECCENTRICITY   = .0011831
INCLINATION    = 50.0009
RA_OF_ASC_NODE = 280.6570
ARG_OF_PERICENTER = 322.2461
MEAN_ANOMALY   = 37.7621

EPHEMERIS_TYPE = 0
CLASSIFICATION_TYPE = U
NORAD_CAT_ID   = 67064
ELEMENT_SET_NO = 999
REV_AT_EPOCH   = 321
BSTAR          = .33465E-3
MEAN_MOTION_DOT = .624E-5
MEAN_MOTION_DDOT = 0

CCSDS_OMM_VERS = 2.0
CREATION_DATE  = 
ORIGINATOR     = 

OBJECT_NAME    = HULIANWANG DIGUI-125
OBJECT_ID      = 2025-295G
CENTER_NAME    = EARTH
REF_FRAME      = TEME
TIME_SYSTEM    = UTC
MEAN_ELEMENT_THEORY = SGP/SGP4

EPOCH          = 2026-01-03T10:26:52.005696
MEAN_MOTION    = 14.24638569
ECCENTRICITY   = .0011961
INCLINATION    = 50.0001
RA_OF_ASC_NODE = 280.6479
ARG_OF_PERICENTER = 330.1618
MEAN_ANOMALY   = 29.8612

EPHEMERIS_TYPE = 0
CLASSIFICATION_TYPE = U
NORAD_CAT_ID   = 67065
ELEMENT_SET_NO = 999
REV_AT_EPOCH   = 321
BSTAR          = .33349E-3
MEAN_MOTION_DOT = .621E-5
MEAN_MOTION_DDOT = 0

CCSDS_OMM_VERS = 2.0
CREATION_DATE  = 
ORIGINATOR     = 

OBJECT_NAME    = HULIANWANG DIGUI-126
OBJECT_ID      = 2025-295H
CENTER_NAME    = EARTH
REF_FRAME      = TEME
TIME_SYSTEM    = UTC
MEAN_ELEMENT_THEORY = SGP/SGP4

EPOCH          = 2026-01-03T10:25:22.964448
MEAN_MOTION    = 14.24658886
ECCENTRICITY   = .0011248
INCLINATION    = 50.0004
RA_OF_ASC_NODE = 280.6425
ARG_OF_PERICENTER = 323.7221
MEAN_ANOMALY   = 36.2929

EPHEMERIS_TYPE = 0
CLASSIFICATION_TYPE = U
NORAD_CAT_ID   = 67066
ELEMENT_SET_NO = 999
REV_AT_EPOCH   = 321
BSTAR          = .32959E-3
MEAN_MOTION_DOT = .612E-5
MEAN_MOTION_DDOT = 0

CCSDS_OMM_VERS = 2.0
CREATION_DATE  = 
ORIGINATOR     = 

OBJECT_NAME    = HULIANWANG DIGUI-127
OBJECT_ID      = 2025-295J
CENTER_NAME    = EARTH
REF_FRAME      = TEME
TIME_SYSTEM    = UTC
MEAN_ELEMENT_THEORY = SGP/SGP4

EPOCH          = 2026-01-03T05:20:53.255040
MEAN_MOTION    = 14.24672222
ECCENTRICITY   = .0010723
INCLINATION    = 50.0043
RA_OF_ASC_NODE = 281.5339
ARG_OF_PERICENTER = 329.4670
MEAN_ANOMALY   = 30.5618

EPHEMERIS_TYPE = 0
CLASSIFICATION_TYPE = U
NORAD_CAT_ID   = 67067
ELEMENT_SET_NO = 999
REV_AT_EPOCH   = 318
BSTAR          = -.50362E-3
MEAN_MOTION_DOT = -.1339E-4
MEAN_MOTION_DDOT = 0

CCSDS_OMM_VERS = 2.0
CREATION_DATE  = 
ORIGINATOR     = 

OBJECT_NAME    = CZ-12 R/B
OBJECT_ID      = 2025-295K
CENTER_NAME    = EARTH
REF_FRAME      = TEME
TIME_SYSTEM    = UTC
MEAN_ELEMENT_THEORY = SGP/SGP4

EPOCH          = 2026-01-03T04:36:16.691904
MEAN_MOTION    = 14.41134857
ECCENTRICITY   = .0056866
INCLINATION    = 49.9935
RA_OF_ASC_NODE = 279.3062
ARG_OF_PERICENTER = 212.7951
MEAN_ANOMALY   = 146.9434

EPHEMERIS_TYPE = 0
CLASSIFICATION_TYPE = U
NORAD_CAT_ID   = 67068
ELEMENT_SET_NO = 999
REV_AT_EPOCH   = 320
BSTAR          = .90708E-4
MEAN_MOTION_DOT = .132E-5
MEAN_MOTION_DDOT = 0

CCSDS_OMM_VERS = 2.0
CREATION_DATE  = 
ORIGINATOR     = 

OBJECT_NAME    = XIWANG-5 02
OBJECT_ID      = 2025-296A
CENTER_NAME    = EARTH
REF_FRAME      = TEME
TIME_SYSTEM    = UTC
MEAN_ELEMENT_THEORY = SGP/SGP4

EPOCH          = 2026-01-03T09:24:48.438720
MEAN_MOTION    = 15.13053930
ECCENTRICITY   = .0002617
INCLINATION    = 41.3532
RA_OF_ASC_NODE = 338.4374
ARG_OF_PERICENTER = 321.2409
MEAN_ANOMALY   = 38.8223

EPHEMERIS_TYPE = 0
CLASSIFICATION_TYPE = U
NORAD_CAT_ID   = 67069
ELEMENT_SET_NO = 999
REV_AT_EPOCH   = 324
BSTAR          = .11631E-2
MEAN_MOTION_DOT = .20817E-3
MEAN_MOTION_DDOT = 0

CCSDS_OMM_VERS = 2.0
CREATION_DATE  = 
ORIGINATOR     = 

OBJECT_NAME    = DEAR-5
OBJECT_ID      = 2025-296B
CENTER_NAME    = EARTH
REF_FRAME      = TEME
TIME_SYSTEM    = UTC
MEAN_ELEMENT_THEORY = SGP/SGP4

EPOCH          = 2026-01-03T08:42:39.845088
MEAN_MOTION    = 15.17051989
ECCENTRICITY   = .0019683
INCLINATION    = 41.3576
RA_OF_ASC_NODE = 338.2245
ARG_OF_PERICENTER = 172.5525
MEAN_ANOMALY   = 187.5592

EPHEMERIS_TYPE = 0
CLASSIFICATION_TYPE = U
NORAD_CAT_ID   = 67070
ELEMENT_SET_NO = 999
REV_AT_EPOCH   = 323
BSTAR          = .557E-3
MEAN_MOTION_DOT = .11103E-3
MEAN_MOTION_DDOT = 0

